{
  "type": "FeatureCollection",
  "features": [
    {
      "type": "Feature",
      "properties": {
        "norad_id": 33684,
        "name": "FENGYUN 1C DEB",
        "group": "fengyun-1c-debris",
        "lat": -39.32608768339328,
        "lon": -151.9433562819125,
        "alt_km": 810.0681690849242,
        "timestamp": "2025-12-06T16:45:43.009086+00:00",
        "meta_object_name": "FENGYUN 1C DEB",
        "meta_object_id": "1999-025DFV",
        "meta_epoch": "2025-12-03T22:32:33.696960",
        "meta_mean_motion": 14.72837728,
        "meta_eccentricity": 0.0288949,
        "meta_inclination": 99.0677,
        "meta_ra_of_asc_node": 32.4922,
        "meta_arg_of_pericenter": 7.9289,
        "meta_mean_anomaly": 352.634,
        "meta_ephemeris_type": 0,
        "meta_classification_type": "U",
        "meta_norad_cat_id": 33684,
        "meta_element_set_no": 999,
        "meta_rev_at_epoch": 92859,
        "meta_bstar": 0.0014257,
        "meta_mean_motion_dot": 0.00017805,
        "meta_mean_motion_ddot": 0,
        "tle_line1": "1 33684U 99025DFV 25337.93927890  .00017805  00000+0  14257-2 0  9997",
        "tle_line2": "2 33684  99.0677  32.4922 0288949   7.9289 352.6340 14.72837728928596"
      },
      "geometry": {
        "type": "Point",
        "coordinates": [
          -151.9433562819125,
          -39.32608768339328
        ]
      }
    },
    {
      "type": "Feature",
      "properties": {
        "norad_id": 33687,
        "name": "FENGYUN 1C DEB",
        "group": "fengyun-1c-debris",
        "lat": 68.66562944299348,
        "lon": -170.7739318616936,
        "alt_km": 536.7797453510057,
        "timestamp": "2025-12-06T16:45:43.009097+00:00",
        "meta_object_name": "FENGYUN 1C DEB",
        "meta_object_id": "1999-025DFY",
        "meta_epoch": "2025-12-02T06:16:02.710272",
        "meta_mean_motion": 15.17405521,
        "meta_eccentricity": 0.0119547,
        "meta_inclination": 98.9972,
        "meta_ra_of_asc_node": 340.0261,
        "meta_arg_of_pericenter": 11.3354,
        "meta_mean_anomaly": 349.0524,
        "meta_ephemeris_type": 0,
        "meta_classification_type": "U",
        "meta_norad_cat_id": 33687,
        "meta_element_set_no": 999,
        "meta_rev_at_epoch": 71349,
        "meta_bstar": 0.0018833,
        "meta_mean_motion_dot": 0.00045488,
        "meta_mean_motion_ddot": 0,
        "tle_line1": "1 33687U 99025DFY 25336.26114248  .00045488  00000+0  18833-2 0  9992",
        "tle_line2": "2 33687  98.9972 340.0261 0119547  11.3354 349.0524 15.17405521713495"
      },
      "geometry": {
        "type": "Point",
        "coordinates": [
          -170.7739318616936,
          68.66562944299348
        ]
      }
    },
    {
      "type": "Feature",
      "properties": {
        "norad_id": 33688,
        "name": "FENGYUN 1C DEB",
        "group": "fengyun-1c-debris",
        "lat": 36.23119381452621,
        "lon": 74.53697237382325,
        "alt_km": 755.1455608775577,
        "timestamp": "2025-12-06T16:45:43.009107+00:00",
        "meta_object_name": "FENGYUN 1C DEB",
        "meta_object_id": "1999-025DFZ",
        "meta_epoch": "2025-12-02T06:15:25.398432",
        "meta_mean_motion": 14.45255894,
        "meta_eccentricity": 0.0053128,
        "meta_inclination": 99.3492,
        "meta_ra_of_asc_node": 76.5882,
        "meta_arg_of_pericenter": 293.1663,
        "meta_mean_anomaly": 66.3934,
        "meta_ephemeris_type": 0,
        "meta_classification_type": "U",
        "meta_norad_cat_id": 33688,
        "meta_element_set_no": 999,
        "meta_rev_at_epoch": 91330,
        "meta_bstar": 0.0032471,
        "meta_mean_motion_dot": 0.00011555,
        "meta_mean_motion_ddot": 0,
        "tle_line1": "1 33688U 99025DFZ 25336.26071063  .00011555  00000+0  32471-2 0  9992",
        "tle_line2": "2 33688  99.3492  76.5882 0053128 293.1663  66.3934 14.45255894913305"
      },
      "geometry": {
        "type": "Point",
        "coordinates": [
          74.53697237382325,
          36.23119381452621
        ]
      }
    },
    {
      "type": "Feature",
      "properties": {
        "norad_id": 33689,
        "name": "FENGYUN 1C DEB",
        "group": "fengyun-1c-debris",
        "lat": 76.03760649583936,
        "lon": -55.44822598998663,
        "alt_km": 733.9538893980352,
        "timestamp": "2025-12-06T16:45:43.009117+00:00",
        "meta_object_name": "FENGYUN 1C DEB",
        "meta_object_id": "1999-025DGA",
        "meta_epoch": "2025-11-29T19:02:12.805728",
        "meta_mean_motion": 14.44995922,
        "meta_eccentricity": 0.00478162,
        "meta_inclination": 99.5667,
        "meta_ra_of_asc_node": 339.4956,
        "meta_arg_of_pericenter": 189.1023,
        "meta_mean_anomaly": 349.9963,
        "meta_ephemeris_type": 0,
        "meta_classification_type": "U",
        "meta_norad_cat_id": 33689,
        "meta_element_set_no": 999,
        "meta_rev_at_epoch": 69343,
        "meta_bstar": 0.0010237814,
        "meta_mean_motion_dot": 3.568e-05,
        "meta_mean_motion_ddot": 0,
        "tle_line1": "1 33689U 99025DGA 25333.79320377  .00003568  00000+0  10238-2 0  9995",
        "tle_line2": "2 33689  99.5667 339.4956 0047816 189.1023 349.9963 14.44995922693439"
      },
      "geometry": {
        "type": "Point",
        "coordinates": [
          -55.44822598998663,
          76.03760649583936
        ]
      }
    },
    {
      "type": "Feature",
      "properties": {
        "norad_id": 33690,
        "name": "FENGYUN 1C DEB",
        "group": "fengyun-1c-debris",
        "lat": -56.11474093517553,
        "lon": 91.96066994796452,
        "alt_km": 741.2347834714092,
        "timestamp": "2025-12-06T16:45:43.009127+00:00",
        "meta_object_name": "FENGYUN 1C DEB",
        "meta_object_id": "1999-025DGB",
        "meta_epoch": "2025-12-06T05:26:31.852320",
        "meta_mean_motion": 14.51282655,
        "meta_eccentricity": 0.00308986,
        "meta_inclination": 98.6133,
        "meta_ra_of_asc_node": 78.4343,
        "meta_arg_of_pericenter": 70.1588,
        "meta_mean_anomaly": 290.2932,
        "meta_ephemeris_type": 0,
        "meta_classification_type": "U",
        "meta_norad_cat_id": 33690,
        "meta_element_set_no": 999,
        "meta_rev_at_epoch": 93125,
        "meta_bstar": 0.0033683317,
        "meta_mean_motion_dot": 0.00013462,
        "meta_mean_motion_ddot": 0,
        "tle_line1": "1 33690U 99025DGB 25340.22675755  .00013462  00000+0  33683-2 0  9999",
        "tle_line2": "2 33690  98.6133  78.4343 0030898  70.1588 290.2932 14.51282655931255"
      },
      "geometry": {
        "type": "Point",
        "coordinates": [
          91.96066994796452,
          -56.11474093517553
        ]
      }
    },
    {
      "type": "Feature",
      "properties": {
        "norad_id": 33693,
        "name": "FENGYUN 1C DEB",
        "group": "fengyun-1c-debris",
        "lat": 69.80430351327094,
        "lon": 4.846582315224293,
        "alt_km": 994.1163922093838,
        "timestamp": "2025-12-06T16:45:43.009137+00:00",
        "meta_object_name": "FENGYUN 1C DEB",
        "meta_object_id": "1999-025DGE",
        "meta_epoch": "2025-12-05T10:29:04.533792",
        "meta_mean_motion": 13.71280096,
        "meta_eccentricity": 0.02263726,
        "meta_inclination": 99.2152,
        "meta_ra_of_asc_node": 157.4471,
        "meta_arg_of_pericenter": 17.9664,
        "meta_mean_anomaly": 342.9324,
        "meta_ephemeris_type": 0,
        "meta_classification_type": "U",
        "meta_norad_cat_id": 33693,
        "meta_element_set_no": 999,
        "meta_rev_at_epoch": 88131,
        "meta_bstar": 0.0025604844,
        "meta_mean_motion_dot": 2.714e-05,
        "meta_mean_motion_ddot": 0,
        "tle_line1": "1 33693U 99025DGE 25339.43685803  .00002714  00000+0  25605-2 0  9991",
        "tle_line2": "2 33693  99.2152 157.4471 0226372  17.9664 342.9324 13.71280096881313"
      },
      "geometry": {
        "type": "Point",
        "coordinates": [
          4.846582315224293,
          69.80430351327094
        ]
      }
    },
    {
      "type": "Feature",
      "properties": {
        "norad_id": 33698,
        "name": "FENGYUN 1C DEB",
        "group": "fengyun-1c-debris",
        "lat": 75.76357725350312,
        "lon": -102.09401398421971,
        "alt_km": 788.8124167727465,
        "timestamp": "2025-12-06T16:45:43.009148+00:00",
        "meta_object_name": "FENGYUN 1C DEB",
        "meta_object_id": "1999-025DGK",
        "meta_epoch": "2025-12-05T02:26:50.470656",
        "meta_mean_motion": 14.55682135,
        "meta_eccentricity": 0.01372315,
        "meta_inclination": 99.6204,
        "meta_ra_of_asc_node": 298.0216,
        "meta_arg_of_pericenter": 240.6716,
        "meta_mean_anomaly": 118.071,
        "meta_ephemeris_type": 0,
        "meta_classification_type": "U",
        "meta_norad_cat_id": 33698,
        "meta_element_set_no": 999,
        "meta_rev_at_epoch": 95525,
        "meta_bstar": 0.00064588489,
        "meta_mean_motion_dot": 3.137e-05,
        "meta_mean_motion_ddot": 0,
        "tle_line1": "1 33698U 99025DGK 25339.10197304  .00003137  00000+0  64588-3 0  9998",
        "tle_line2": "2 33698  99.6204 298.0216 0137231 240.6716 118.0710 14.55682135955256"
      },
      "geometry": {
        "type": "Point",
        "coordinates": [
          -102.09401398421971,
          75.76357725350312
        ]
      }
    }
  ]
}